[{"OBJECT_NAME":"STARLINK-5464","OBJECT_ID":"2022-175A","EPOCH":"2026-03-09T22:27:08.075232","MEAN_MOTION":15.08835229,"ECCENTRICITY":0.00012811,"INCLINATION":53.218,"RA_OF_ASC_NODE":38.2078,"ARG_OF_PERICENTER":90.2925,"MEAN_ANOMALY":269.8214,"EPHEMERIS_TYPE":0,"CLASSIFICATION_TYPE":"U","NORAD_CAT_ID":54758,"ELEMENT_SET_NO":999,"REV_AT_EPOCH":18002,"BSTAR":1.1991324e-5,"MEAN_MOTION_DOT":-9.7e-7,"MEAN_MOTION_DDOT":0},{"OBJECT_NAME":"RAISE-4","OBJECT_ID":"2025-297B","EPOCH":"2026-03-09T23:25:57.718272","MEAN_MOTION":15.08174958,"ECCENTRICITY":0.00127133,"INCLINATION":97.4953,"RA_OF_ASC_NODE":219.2703,"ARG_OF_PERICENTER":22.7159,"MEAN_ANOMALY":337.4629,"EPHEMERIS_TYPE":0,"CLASSIFICATION_TYPE":"U","NORAD_CAT_ID":67073,"ELEMENT_SET_NO":999,"REV_AT_EPOCH":1293,"BSTAR":0.00037087145,"MEAN_MOTION_DOT":5.682e-5,"MEAN_MOTION_DDOT":0}]
